{"status":"success","data":[{"barometer_hg":30.47,"barometer_kpa":103.18,"barometer_mb":1032,"clouds":[{"cloud_base_ft_agl":0,"cloud_base_meters_agl":0,"cloud_code":"CAVOK","cloud_text":"Clear skies"}],"dewpoint_c":-4,"dewpoint_f":25,"elevation_ft":200,"elevation_meters":61,"flight_category":"VFR","humidity_pct":93,"icao":"ESSA","observed":"16-05-2017 @ 01:20Z","raw_text":"ESSA 160120Z 36003KT CAVOK M03/M04 Q1032 NOSIG","temp_c":-3,"temp_f":27,"visibility_meters":"10,000+","visibility_miles":"Greater than 6","wind_degrees":360,"wind_speed_kt":3,"wind_speed_mph":3,"wind_speed_mps":2}]}