{"status":"success","data":[{"barometer_hg":30.12,"barometer_kpa":102,"barometer_mb":1020,"clouds":[{"cloud_base_ft_agl":0,"cloud_base_meters_agl":0,"cloud_code":"CAVOK","cloud_text":"Clear skies"}],"dewpoint_c":0,"dewpoint_f":32,"elevation_ft":200,"elevation_meters":61,"flight_category":"VFR","humidity_pct":36,"icao":"ESSA","observed":"14-05-2017 @ 12:20Z","raw_text":"ESSA 141220Z 20007KT CAVOK 15/M00 Q1020 NOSIG","temp_c":15,"temp_f":59,"visibility_meters":"10,000+","visibility_miles":"Greater than 6","wind_degrees":200,"wind_speed_kt":7,"wind_speed_mph":8,"wind_speed_mps":4}]}