{"status":"success","data":[{"barometer_hg":29.79,"barometer_kpa":100.98,"barometer_mb":1009,"clouds":[{"cloud_base_ft_agl":0,"cloud_base_meters_agl":0,"cloud_code":"CAVOK","cloud_text":"Clear skies"}],"dewpoint_c":-1,"dewpoint_f":30,"elevation_ft":200,"elevation_meters":61,"flight_category":"VFR","humidity_pct":75,"icao":"ESSA","observed":"10-05-2017 @ 18:20Z","raw_text":"ESSA 101820Z 16006KT CAVOK 03/M01 Q1009 NOSIG","temp_c":3,"temp_f":37,"visibility_meters":"10,000+","visibility_miles":"Greater than 6","wind_degrees":160,"wind_speed_kt":6,"wind_speed_mph":7,"wind_speed_mps":3}]}
