{"status":"success","data":[{"barometer_hg":30.09,"barometer_kpa":101.8,"barometer_mb":1019,"clouds":[{"cloud_base_ft_agl":0,"cloud_base_meters_agl":0,"cloud_code":"CAVOK","cloud_text":"Clear skies"}],"dewpoint_c":-4,"dewpoint_f":25,"elevation_ft":200,"elevation_meters":61,"flight_category":"VFR","humidity_pct":40,"icao":"ESSA","observed":"13-05-2017 @ 19:20Z","raw_text":"ESSA 131920Z 14006KT CAVOK 09/M04 Q1019 NOSIG","temp_c":9,"temp_f":48,"visibility_meters":"10,000+","visibility_miles":"Greater than 6","wind_degrees":140,"wind_speed_kt":6,"wind_speed_mph":7,"wind_speed_mps":3}]}
