{"status":"success","data":[{"barometer_hg":30.44,"barometer_kpa":103.08,"barometer_mb":1031,"clouds":[{"cloud_base_ft_agl":0,"cloud_base_meters_agl":0,"cloud_code":"CAVOK","cloud_text":"Clear skies"}],"dewpoint_c":-3,"dewpoint_f":27,"elevation_ft":200,"elevation_meters":61,"flight_category":"VFR","humidity_pct":93,"icao":"ESSA","observed":"16-05-2017 @ 02:20Z","raw_text":"ESSA 160220Z 36004KT CAVOK M02/M03 Q1031 NOSIG","temp_c":-2,"temp_f":28,"visibility_meters":"10,000+","visibility_miles":"Greater than 6","wind_degrees":360,"wind_speed_kt":4,"wind_speed_mph":5,"wind_speed_mps":2}]}