{"status":"success","data":[{"barometer_hg":30.12,"barometer_kpa":102,"barometer_mb":1020,"clouds":[{"cloud_base_ft_agl":0,"cloud_base_meters_agl":0,"cloud_code":"CAVOK","cloud_text":"Clear skies"}],"dewpoint_c":-2,"dewpoint_f":28,"elevation_ft":200,"elevation_meters":61,"flight_category":"VFR","humidity_pct":57,"icao":"ESSA","observed":"13-05-2017 @ 21:20Z","raw_text":"ESSA 132120Z 11004KT 090V160 CAVOK 06/M02 Q1020 NOSIG","temp_c":6,"temp_f":43,"visibility_meters":"10,000+","visibility_miles":"Greater than 6","wind_degrees":110,"wind_speed_kt":4,"wind_speed_mph":5,"wind_speed_mps":2}]}