{"status":"success","data":[{"barometer_hg":30.12,"barometer_kpa":102,"barometer_mb":1020,"clouds":[{"cloud_base_ft_agl":0,"cloud_base_meters_agl":0,"cloud_code":"CLR","cloud_text":"Clear skies"}],"conditions":[{"cond_code":"DZ","cond_prefix":"-","cond_text":"Light Drizzle"}],"dewpoint_c":4,"dewpoint_f":39,"elevation_ft":200,"elevation_meters":61,"flight_category":"VFR","humidity_pct":71,"icao":"ESSA","observed":"14-05-2017 @ 07:20Z","raw_text":"ESSA 140720Z 12003KT 9999 -DZ NSC 09/04 Q1020 NOSIG","temp_c":9,"temp_f":48,"visibility_meters":"10,000+","visibility_miles":"Greater than 6","wind_degrees":120,"wind_speed_kt":3,"wind_speed_mph":3,"wind_speed_mps":2}]}