{"status":"success","data":[{"barometer_hg":30,"barometer_kpa":100.59,"barometer_mb":1016,"clouds":[{"cloud_base_ft_agl":0,"cloud_base_meters_agl":0,"cloud_code":"CAVOK","cloud_text":"Clear skies"}],"dewpoint_c":-6,"dewpoint_f":21,"elevation_ft":200,"elevation_meters":61,"flight_category":"VFR","humidity_pct":34,"icao":"ESSA","observed":"12-05-2017 @ 11:50Z","raw_text":"ESSA 121150Z 14010KT CAVOK 09/M06 Q1016 NOSIG","temp_c":9,"temp_f":48,"visibility_meters":"10,000+","visibility_miles":"Greater than 6","wind_degrees":140,"wind_speed_kt":10,"wind_speed_mph":12,"wind_speed_mps":5}]}
