{"status":"success","data":[{"barometer_hg":30.12,"barometer_kpa":102,"barometer_mb":1020,"ceiling_code":"BKN","ceiling_ft_agl":4400,"ceiling_meters_agl":1341.12,"ceiling_text":"Broken","clouds":[{"cloud_base_ft_agl":4400,"cloud_base_meters_agl":1341.12,"cloud_code":"BKN","cloud_text":"Broken"}],"dewpoint_c":2,"dewpoint_f":36,"elevation_ft":200,"elevation_meters":61,"flight_category":"VFR","humidity_pct":76,"icao":"ESSA","observed":"14-05-2017 @ 04:20Z","raw_text":"ESSA 140420Z 18004KT 120V200 9999 BKN044 06/02 Q1020 NOSIG","temp_c":6,"temp_f":43,"visibility_meters":"10,000+","visibility_miles":"Greater than 6","wind_degrees":180,"wind_speed_kt":4,"wind_speed_mph":5,"wind_speed_mps":2}]}