{"status":"success","data":[{"barometer_hg":30.12,"barometer_kpa":102,"barometer_mb":1020,"ceiling_code":"OVC","ceiling_ft_agl":4900,"ceiling_meters_agl":1493.52,"ceiling_text":"Overcast","clouds":[{"cloud_base_ft_agl":4900,"cloud_base_meters_agl":1493.52,"cloud_code":"OVC","cloud_text":"Overcast"}],"dewpoint_c":2,"dewpoint_f":36,"elevation_ft":200,"elevation_meters":61,"flight_category":"VFR","humidity_pct":76,"icao":"ESSA","observed":"14-05-2017 @ 03:50Z","raw_text":"ESSA 140350Z 08003KT 9999 OVC049 06/02 Q1020 NOSIG","temp_c":6,"temp_f":43,"visibility_meters":"10,000+","visibility_miles":"Greater than 6","wind_degrees":80,"wind_speed_kt":3,"wind_speed_mph":3,"wind_speed_mps":2}]}